[{"OBJECT_NAME":"STARLINK-34597","OBJECT_ID":"2025-144Q","EPOCH":"2026-03-09T14:36:00.735840","MEAN_MOTION":15.30174017,"ECCENTRICITY":0.0001046,"INCLINATION":53.1586,"RA_OF_ASC_NODE":181.1166,"ARG_OF_PERICENTER":100.129,"MEAN_ANOMALY":259.9829,"EPHEMERIS_TYPE":0,"CLASSIFICATION_TYPE":"U","NORAD_CAT_ID":64738,"ELEMENT_SET_NO":999,"REV_AT_EPOCH":3968,"BSTAR":0.00064685,"MEAN_MOTION_DOT":0.00018832,"MEAN_MOTION_DDOT":0},{"OBJECT_NAME":"COSMOS 2251 DEB","OBJECT_ID":"1993-036DE","EPOCH":"2026-03-09T20:53:28.838688","MEAN_MOTION":15.29467846,"ECCENTRICITY":0.00306247,"INCLINATION":73.7716,"RA_OF_ASC_NODE":223.0836,"ARG_OF_PERICENTER":342.1726,"MEAN_ANOMALY":17.8397,"EPHEMERIS_TYPE":0,"CLASSIFICATION_TYPE":"U","NORAD_CAT_ID":33901,"ELEMENT_SET_NO":999,"REV_AT_EPOCH":90839,"BSTAR":0.0037194515,"MEAN_MOTION_DOT":0.00109321,"MEAN_MOTION_DDOT":0}]
